ASTROCAST-0403          
1 55111U 23001DG  26068.82333059  .00013959  00000+0  51317-3 0  9990
2 55111  97.5604 161.3228 0004770 338.0704  22.0330 15.28004949129376
STARLINK-30956          
1 58481U 23186J   26068.93776030  .00002079  00000+0  87184-4 0  9992
2 58481  43.0024  39.5665 0001593 265.8868  94.1802 15.26738843126196
